1 48437C 21040K   22209.19909722 -.00015153  00000+0 -10153-2 0  2099
2 48437  53.0574 359.5261 0001456  67.8819  66.5182 15.06414185    12
1 48437C 21040K   22209.53243056 -.00014701  00000+0 -98512-3 0  2092
2 48437  53.0574 358.0297 0001394  67.1087  75.9813 15.06407498    10
1 48437C 21040K   22209.85881944  .00012482  00000+0  83650-3 0  2090
2 48437  53.0573 356.5646 0001351  67.3572  46.7428 15.06377760    10
1 48437C 21040K   22210.21090278  .00006409  00000+0  42944-3 0  2109
2 48437  53.0573 354.9843 0001336  67.7323 156.7661 15.06388438    17
1 48437C 21040K   22210.52756944  .00000106  00000+0  71199-5 0  2106
2 48437  53.0572 353.5629 0001320  68.3925  74.3386 15.06398128    17
1 48437C 21040K   22210.87131944  .00010851  00000+0  72695-3 0  2109
2 48437  53.0571 352.0200 0001318  68.8067 139.1256 15.06390793    10
1 48437C 21040K   22211.20465278 -.00012537  00000+0 -83996-3 0  2119
2 48437  53.0570 350.5238 0001339  69.3597 147.2440 15.06411336    12
1 48437C 21040K   22211.51854167 -.00024135  00000+0 -16175-2 0  2113
2 48437  53.0569 349.1148 0001377  69.3646  50.4166 15.06413436    14
1 48437C 21040K   22211.86645833  .00010440  00000+0  69977-3 0  2110
2 48437  53.0568 347.5531 0001427  70.1439 137.4630 15.06374159    17
1 48437C 21040K   22212.20118056  .00006648  00000+0  44555-3 0  2122
2 48437  53.0569 346.0507 0001433  69.9418 153.8573 15.06380787    17
1 48437C 21040K   22212.51437500  .00001400  00000+0  93854-4 0  2122
2 48437  53.0568 344.6448 0001430  69.7163  53.4676 15.06389516    14
1 48437C 21040K   22212.86298611  .00012215  00000+0  81843-3 0  2128
2 48437  53.0569 343.0801 0001436  69.2961 145.4551 15.06385550    16
1 48437C 21040K   22213.19701389  .00008620  00000+0  57750-3 0  2132
2 48437  53.0570 341.5807 0001446  68.5535 158.6368 15.06393776    18
1 48437C 21040K   22213.54145833 -.00009349  00000+0 -62630-3 0  2131
2 48437  53.0570 340.0346 0001471  68.5732 227.5788 15.06412680    15
1 48437C 21040K   22213.85812500 -.00012615  00000+0 -84521-3 0  2130
2 48437  53.0571 338.6131 0001515  69.0805 145.3259 15.06410291    13
1 48437C 21040K   22214.20881944  .00005378  00000+0  36041-3 0  2149
2 48437  53.0572 337.0389 0001555  69.5990 247.7072 15.06384784    13
1 48437C 21040K   22214.53729167  .00004469  00000+0  29944-3 0  2147
2 48437  53.0572 335.5644 0001558  69.9386 229.6564 15.06390234    18
1 48437C 21040K   22214.85465278  .00011682  00000+0  78264-3 0  2146
2 48437  53.0572 334.1399 0001540  69.6746 151.9255 15.06389716    15
1 48437C 21040K   22215.22270833  .00000433  00000+0  28994-4 0  2158
2 48437  53.0572 332.4878 0001517  69.3822 349.2946 15.06403749    16
1 48437C 21040K   22215.53243056 -.00022887  00000+0 -15335-2 0  2151
2 48437  53.0571 331.0974 0001448  69.7699 229.4728 15.06419359    17
1 48437C 21040K   22215.85118056 -.00000376  00000+0 -25176-4 0  2152
2 48437  53.0570 329.6666 0001402  68.7571 160.0545 15.06391926    11
1 48437C 21040K   22216.18312500  .00007975  00000+0  53443-3 0  2167
2 48437  53.0570 328.1765 0001349  68.5930 161.3571 15.06384255    12
1 48437C 21040K   22216.52826389  .00003729  00000+0  24990-3 0  2168
2 48437  53.0568 326.6272 0001335  69.5357 233.1370 15.06391238    18
1 48437C 21040K   22216.86090278  .00009261  00000+0  62047-3 0  2167
2 48437  53.0565 325.1340 0001322  69.0552 238.5202 15.06392107    12
1 48437C 21040K   22217.18173611 -.00001246  00000+0 -83494-4 0  2174
2 48437  53.0564 323.6939 0001313  69.5636 178.8605 15.06402705    15
1 48437C 21040K   22217.52409722 -.00019365  00000+0 -12976-2 0  2173
2 48437  53.0562 322.1569 0001354  70.6637 235.4282 15.06415425    19
1 48437C 21040K   22217.85604167  .00002352  00000+0  15763-3 0  2173
2 48437  53.0561 320.6668 0001403  70.7349 236.5169 15.06388799    16
1 48437C 21040K   22218.17479167  .00007694  00000+0  51561-3 0  2180
2 48437  53.0561 319.2359 0001406  70.5978 166.1958 15.06384664    17
1 48437C 21040K   22218.54354167  .00005809  00000+0  38924-3 0  2187
2 48437  53.0560 317.5805 0001414  70.1808   7.4520 15.06391513    13
1 48437C 21040K   22218.85118056 -.00012744  00000+0 -85394-3 0  2187
2 48437  53.0560 316.1995 0001451  69.3703 237.5101 15.06408777    15
1 48437C 21040K   22219.20812500 -.00006949  00000+0 -46575-3 0  2191
2 48437  53.0561 314.5971 0001492  69.3872  14.2965 15.06395023    11
1 48437C 21040K   22219.53868056  .00011487  00000+0  76979-3 0  2196
2 48437  53.0563 313.1131 0001532  69.6088   7.6823 15.06379987    13
1 48437C 21040K   22219.86229167  .00017381  00000+0  11642-2 0  2190
2 48437  53.0564 311.6605 0001551  68.6328 324.5673 15.06392037    15
1 48437C 21040K   22220.20187500  .00004025  00000+0  26955-3 0  2201
2 48437  53.0565 310.1361 0001533  67.8882   7.8994 15.06414662    11
1 48437C 21040K   22220.53520833 -.00020899  00000+0 -13995-2 0  2205
2 48437  53.0567 308.6397 0001449  66.0382  18.4474 15.06439740    11
1 48437C 21040K   22220.88104167 -.00024809  00000+0 -16622-2 0  2206
2 48437  53.0569 307.0873 0001390  64.8640  96.1667 15.06424075    15
1 48437C 21040K   22221.22340278 -.00026841  00000+0 -17994-2 0  2212
2 48437  53.0569 305.5504 0001334  64.4120 154.2999 15.06405237    19
1 48437C 21040K   22221.52965278 -.00010786  00000+0 -72334-3 0  2219
2 48437  53.0569 304.1758 0001323  63.6143  16.8277 15.06375877    17
1 48437C 21040K   22221.85326389  .00010701  00000+0  71766-3 0  2212
2 48437  53.0569 302.7233 0001294  63.6407 332.7022 15.06354299    12
1 48437C 21040K   22222.19423611  .00010731  00000+0  71951-3 0  2226
2 48437  53.0568 301.1929 0001275  62.9983  23.4207 15.06360951    17
1 48437C 21040K   22222.52687500  .00011244  00000+0  75384-3 0  2226
2 48437  53.0566 299.6999 0001252  62.9201  28.3721 15.06363631    14
1 48437C 21040K   22222.84770833  .00008250  00000+0  55278-3 0  2226
2 48437  53.0554 298.2578 0001308  58.1483 333.9519 15.06390492    15
1 48437C 21040K   22223.21437500  .00004438  00000+0  29747-3 0  2236
2 48437  53.0561 296.6142 0001221  63.0187 158.6018 15.06382277    10
1 48437C 21040K   22223.52895833  .00010202  00000+0  68370-3 0  2238
2 48437  53.0559 295.2021 0001225  62.6491  65.8995 15.06380119    11
1 48437C 21040K   22223.84284722  .00010716  00000+0  71797-3 0  2239
2 48437  53.0556 293.7933 0001237  62.4746 329.2291 15.06390186    18
1 48437C 21040K   22224.19631944  .00008562  00000+0  57350-3 0  2246
2 48437  53.0553 292.2066 0001229  62.4737  87.1746 15.06401214    17
1 48437C 21040K   22224.81576389 -.00016860  00000+0 -11294-2 0  2244
2 48437  53.0549 289.4259 0001292  61.7413 209.0462 15.06425043    13
1 48437C 21040K   22225.18104167 -.00012128  00000+0 -81269-3 0  2250
2 48437  53.0547 287.7860 0001369  62.7705  30.0529 15.06407364    12
1 48437C 21040K   22225.52270833 -.00014134  00000+0 -94732-3 0  2250
2 48437  53.0547 286.2522 0001448  63.0837  83.6430 15.06399525    13
1 48437C 21040K   22225.84909722 -.00001751  00000+0 -11735-3 0  2254
2 48437  53.0547 284.7869 0001487  62.5790  55.1460 15.06383707    17
1 48437C 21040K   22226.17687500  .00005755  00000+0  38574-3 0  2265
2 48437  53.0546 283.3154 0001532  63.3515  32.8881 15.06379391    16
1 48437C 21040K   22226.52131944  .00012757  00000+0  85491-3 0  2260
2 48437  53.0547 281.7691 0001544  62.7410 102.4504 15.06377894    17
1 48437C 21040K   22226.84423611  .00007035  00000+0  47142-3 0  2264
2 48437  53.0549 280.3194 0001552  62.2863  55.0423 15.06388697    14
1 48437C 21040K   22227.18381944  .00003203  00000+0  21461-3 0  2274
2 48437  53.0549 278.7948 0001558  62.4893  97.4182 15.06397158    17
1 48437C 21040K   22227.52340278  .00011019  00000+0  73815-3 0  2271
2 48437  53.0550 277.2704 0001568  62.0906 140.4126 15.06393367    10
1 48437C 21040K   22227.83937500  .00006062  00000+0  40604-3 0  2277
2 48437  53.0552 275.8518 0001560  61.7808  55.1969 15.06403739    10
1 48437C 21040K   22228.20187500 -.00014983  00000+0 -10035-2 0  2284
2 48437  53.0552 274.2244 0001509  61.0839 222.8334 15.06425293    17
1 48437C 21040K   22228.54631944 -.00012146  00000+0 -81380-3 0  2288
2 48437  53.0552 272.6781 0001473  61.2272 291.6867 15.06412115    12
1 48437C 21040K   22228.86715278  .00003406  00000+0  22822-3 0  2289
2 48437  53.0552 271.2378 0001446  60.2740 233.5119 15.06391431    10
1 48437C 21040K   22229.22826389 -.00001259  00000+0 -84358-4 0  2296
2 48437  53.0551 269.6167 0001422  60.2713  32.9050 15.06398569    14
1 48437C 21040K   22229.57479167  .00011217  00000+0  75152-3 0  2296
2 48437  53.0551 268.0611 0001429  60.4208 113.0307 15.06390556    13
1 48437C 21040K   22229.88451389  .00005149  00000+0  34494-3 0  2297
2 48437  53.0550 266.6708 0001422  60.3457 353.6670 15.06400022    16
1 48437C 21040K   22230.14354167 -.00007417  00000+0 -49680-3 0  2301
2 48437  53.0549 265.5080 0001471  60.6721 318.8304 15.06417616    10
1 48437C 21040K   22230.49076389 -.00013224  00000+0 -88619-3 0  2304
2 48437  53.0548 263.9492 0001529  60.3858  43.1965 15.06405651    17
1 48437C 21040K   22231.19006944  .00001773  00000+0  11880-3 0  2313
2 48437  53.0546 260.8100 0001605  61.8205 236.2098 15.06394306    10
1 48437C 21040K   22231.53451389 -.00004514  00000+0 -30245-3 0  2312
2 48437  53.0546 259.2639 0001676  61.6490 305.3429 15.06398364    15
1 48437C 21040K   22231.87548611 -.00020527  00000+0 -13760-2 0  2318
2 48437  53.0546 257.7332 0001707  61.7927 355.3237 15.06401864    11
1 48437C 21040K   22232.18451389 -.00001732  00000+0 -11613-3 0  2322
2 48437  53.0546 256.3460 0001783  62.8418 231.0725 15.06378938    16
1 48437C 21040K   22232.53659722  .00011291  00000+0  75690-3 0  2326
2 48437  53.0547 254.7656 0001815  62.5975 341.7108 15.06369074    12
1 48437C 21040K   22232.87062500  .00005210  00000+0  34921-3 0  2321
2 48437  53.0548 253.2661 0001828  62.1384 354.5881 15.06376812    15
